LEMUR-1                 
1 40044U 14033AL  26187.35920270  .00002160  00000+0  25243-3 0  9992
2 40044  97.7901 336.7410 0048518  16.9645 343.3179 14.85319108648310
LEMUR-2-GREENBERG       
1 42837U 17042N   26187.75207538  .00013796  00000+0  44885-3 0  9996
2 42837  97.3832   8.2953 0007188 295.9330  64.1170 15.31966739491384
LEMUR-2-ANDIS           
1 42838U 17042P   26187.73544481  .00017878  00000+0  51664-3 0  9994
2 42838  97.3685   8.5318 0007107 293.7973  66.2525 15.35678970491455
LEMUR-2-MONSON          
1 42839U 17042Q   26187.73806894  .00011607  00000+0  41953-3 0  9998
2 42839  97.4095   8.2234 0005141 284.6835  75.3834 15.28600277491156
LEMUR-2-FURIAUS         
1 42840U 17042R   26187.43255173  .00018651  00000+0  62538-3 0  9993
2 42840  97.3781   5.8885 0006724   4.0809 356.0486 15.30929761491154
LEMUR-2-PETERG          
1 42841U 17042S   26187.47065099  .00024549  00000+0  72866-3 0  9992
2 42841  97.4000  12.5429 0002864 263.6027  96.4890 15.34790924491396
LEMUR-2-DEMBITZ         
1 42842U 17042T   26187.45219817  .00017223  00000+0  57818-3 0  9991
2 42842  97.3834   8.9463 0005291 313.9812  46.0993 15.30918269491290
LEMUR-2-ZACHARY         
1 42845U 17042W   26187.47928301  .00051075  00000+0  84327-3 0  9999
2 42845  97.3592  19.5481 0002339 292.4564  67.6440 15.52103423492195
LEMUR-2-AMANDA-SVANTE   
1 48269U 21034B   26187.19863294  .00035315  00000+0  10207-2 0  9993
2 48269  97.5745 266.0000 0004036 164.2126 195.9244 15.35552160283973
LEMUR-2-SPECIAL-K       
1 48273U 21034F   26187.23722578  .00241712  00000+0  18453-2 0  9993
2 48273  97.5636 275.5626 0005773 220.9079 139.1750 15.71456484284674
LEMUR-2-EMBRIONOVIS     
1 56970U 23084AQ  26187.33247503  .00014178  00000+0  38021-3 0  9992
2 56970  97.6316 332.2754 0007701 241.1280 118.9192 15.38065403170622
LEMUR-2-DEVERILL-M-T    
1 57391U 23100F   26187.65941184  .00021851  00000+0  53549-3 0  9998
2 57391  99.4457 232.0549 0004853 334.3234  25.7764 15.40781966164247
LEMUR-2-BASS            
1 58259U 23174D   26187.79000969  .00015539  00000+0  34469-3 0  9991
2 58259  97.3840 272.7845 0007987 102.9943 257.2197 15.43791093148385
LEMUR-2-JK0903EM1407    
1 58336U 23174CJ  26187.74205231  .00023414  00000+0  37988-3 0  9991
2 58336  97.3916 278.7771 0004313  60.8659 299.3025 15.52744169148766
LEMUR-2-MJR092620       
1 58340U 23174CN  26187.71556336  .00015007  00000+0  31298-3 0  9995
2 58340  97.3969 278.1135 0006071  58.6351 301.5491 15.45636987148666
LEMUR-2-NIMBUS2000      
1 58899U 24022A   26187.82691969  .00016714  00000+0  40833-3 0  9992
2 58899  97.4092  38.0827 0009558  55.6742 304.5408 15.40859302135297
LEMUR-2-VALHALLA        
1 58900U 24022B   26187.56870147  .00013592  00000+0  33871-3 0  9998
2 58900  97.4092  37.7991 0010098  52.3792 307.8369 15.40297609135252
LEMUR-2-CAEL            
1 58903U 24022E   26187.56189802  .00014888  00000+0  35485-3 0  9994
2 58903  97.4076  38.7626 0008065  38.7751 321.4074 15.41646096135329
LEMUR-2-JOHNNYTRUONG    
1 59146U 24043BA  26187.37894101  .00043037  00000+0  49242-3 0  9995
2 59146  97.5393 340.2928 0004447 119.3476 240.8226 15.62025124131031
LEMUR-2-TOMATOKECHUP    
1 60471U 24149D   26187.71347409  .00008991  00000+0  25500-3 0  9998
2 60471  97.3789 269.8148 0002908 137.9028 222.2440 15.36460405105163
LEMUR-2-STELLA          
1 60533U 24149BT  26187.67071274  .00008588  00000+0  50034-3 0  9998
2 60533  97.6726 270.2156 0001180 108.9246 251.2112 15.12250312103447
LEMUR-2-MARHISYAM       
1 60536U 24149BW  26187.19494461  .00010677  00000+0  63118-3 0  9994
2 60536  97.6870 270.2058 0002871  83.2434 276.9123 15.11655906103356
LEMUR-2-AHMED-ASRAR     
1 60576U 24149DN  26187.47501075  .00009441  00000+0  53572-3 0  9999
2 60576  97.6996 272.6559 0000480 267.0246  93.0930 15.13174842103483
LEMUR-2-LLOYD           
1 60577U 24149DP  26187.73105913  .00007068  00000+0  44313-3 0  9996
2 60577  97.6735 268.8748 0004987  92.1025 268.0775 15.09641264103348
LEMUR-2-SQUIRRELCOMM    
1 60578U 24149DQ  26187.70688676  .00005761  00000+0  38480-3 0  9992
2 60578  97.6704 268.5586 0004878 358.1093   2.0115 15.07387058103341
LEMUR-2-SIERRINI        
1 60579U 24149DR  26187.22222315  .00011635  00000+0  69227-3 0  9994
2 60579  97.6837 269.9031 0006600 113.2698 246.9227 15.11385219103339
LEMUR-2-WILSON          
1 62694U 25009CP  26187.70312089  .00002892  00000+0  26793-3 0  9997
2 62694  97.7020 265.8257 0002622   7.2206 352.9052 14.95256068 80277
LEMUR-2-STAR-FOX        
1 62696U 25009CR  26187.60415116  .00005629  00000+0  42526-3 0  9996
2 62696  97.6928 269.0749 0003481  70.9430 289.2172 15.02774699 80478
LEMUR-2-ARIANNA         
1 62699U 25009CU  26187.20310691  .00007087  00000+0  53415-3 0  9996
2 62699  97.6866 268.4362 0003872  76.7600 283.4057 15.02770802 80417
LEMUR-2-ALISIA          
1 62706U 25009DB  26187.70996690  .00007259  00000+0  54254-3 0  9992
2 62706  97.6950 269.7475 0003374 156.8621 203.2757 15.03086294103092
